     2              NAVIGATION DATA                         RINEX VERSION / TYPE
CCRINEXN V1.6.0 UX  CDDIS               31-MAY-23 23:31     PGM / RUN BY / DATE 
IGS BROADCAST EPHEMERIS FILE                                COMMENT             
    0.1770D-07  0.2235D-07 -0.1192D-06 -0.1192D-06          ION ALPHA           
    0.1188D+06  0.1475D+06 -0.1311D+06 -0.3932D+06          ION BETA            
    0.931322574615D-09-0.444089209850D-14   319488     2264 DELTA-UTC: A0,A1,T,W
    18                                                      LEAP SECONDS        
                                                            END OF HEADER       
 6 23  5 30 20  0  0.0 0.587030313909D-03-0.113686837722D-11 0.000000000000D+00
    0.680000000000D+02-0.615625000000D+02 0.382051628270D-08-0.302300181831D+01
   -0.304356217384D-05 0.275429489557D-02 0.108145177364D-04 0.515368032455D+04
    0.244800000000D+06-0.447034835815D-07 0.226089945060D+01 0.707805156708D-07
    0.989190310215D+00 0.186687500000D+03-0.740886860546D+00-0.761817447040D-08
   -0.125005206969D-10 0.100000000000D+01 0.226400000000D+04 0.000000000000D+00
    0.200000000000D+01 0.000000000000D+00 0.372529029846D-08 0.680000000000D+02
    0.237649000000D+06 0.400000000000D+01 0.000000000000D+00 0.000000000000D+00
 7 23  5 30 20  0  0.0 0.165085308254D-03-0.966338120634D-11 0.000000000000D+00
    0.107000000000D+03 0.243750000000D+01 0.437553940164D-08 0.244195602182D+01
   -0.931322574616D-08 0.173525337595D-01 0.121481716633D-04 0.515375183296D+04
    0.244800000000D+06 0.651925802231D-07-0.887720919540D+00-0.296160578728D-06
    0.950279151398D+00 0.135406250000D+03-0.219275607108D+01-0.769389191005D-08
   -0.201436962087D-09 0.100000000000D+01 0.226400000000D+04 0.000000000000D+00
    0.280000000000D+01 0.000000000000D+00-0.111758708954D-07 0.107000000000D+03
    0.237618000000D+06 0.400000000000D+01 0.000000000000D+00 0.000000000000D+00
 8 23  5 30 20  0  0.0-0.125005375594D-03-0.181898940355D-11 0.000000000000D+00
    0.240000000000D+02-0.254687500000D+02 0.488020328006D-08-0.101185100050D+01
   -0.135228037834D-05 0.846043089405D-02 0.346638262272D-05 0.515370016861D+04
    0.244800000000D+06 0.987201929092D-07 0.117677773980D+01-0.689178705216D-07
    0.958479870774D+00 0.305437500000D+03 0.269350711013D+00-0.846535261592D-08
   -0.314298806093D-10 0.100000000000D+01 0.226400000000D+04 0.000000000000D+00
    0.200000000000D+01 0.000000000000D+00 0.512227416039D-08 0.240000000000D+02
    0.237618000000D+06 0.400000000000D+01 0.000000000000D+00 0.000000000000D+00
 9 23  5 30 20  0  0.0-0.147088896483D-03 0.864019966684D-11 0.000000000000D+00
    0.300000000000D+02-0.330937500000D+02 0.491913347308D-08-0.571934065361D+00
   -0.172294676304D-05 0.236711942125D-02 0.577047467232D-05 0.515360208130D+04
    0.244800000000D+06-0.409781932831D-07-0.195985095187D+01 0.447034835815D-07
    0.955764785520D+00 0.264468750000D+03 0.194627656719D+01-0.832748973052D-08
   -0.287154818294D-09 0.100000000000D+01 0.226400000000D+04 0.000000000000D+00
    0.200000000000D+01 0.000000000000D+00 0.931322574616D-09 0.300000000000D+02
    0.237627000000D+06 0.400000000000D+01 0.000000000000D+00 0.000000000000D+00
10 23  5 30 20  0  0.0-0.391094945371D-04-0.159161572810D-11 0.000000000000D+00
    0.570000000000D+02 0.205312500000D+02 0.435303846438D-08 0.987361228130D+00
    0.128336250782D-05 0.850685941987D-02 0.762939453125D-05 0.515368740845D+04
    0.244800000000D+06-0.372529029846D-08-0.298648903761D+01 0.132247805595D-06
    0.979053275396D+00 0.243937500000D+03-0.243251224632D+01-0.809390857235D-08
    0.210365905442D-09 0.100000000000D+01 0.226400000000D+04 0.000000000000D+00
    0.200000000000D+01 0.000000000000D+00 0.232830643654D-08 0.570000000000D+02
    0.237618000000D+06 0.400000000000D+01 0.000000000000D+00 0.000000000000D+00
11 23  5 30 20  0  0.0-0.216459389776D-03-0.144382283907D-10 0.000000000000D+00
    0.660000000000D+02-0.533750000000D+02 0.436732477375D-08-0.157117280876D+01
   -0.258907675743D-05 0.846621347591D-03 0.104364007711D-04 0.515375607109D+04
    0.244800000000D+06 0.670552253723D-07 0.230213957354D+01 0.372529029846D-07
    0.965423863059D+00 0.181000000000D+03-0.287433901224D+01-0.795604568695D-08
    0.107147320259D-11 0.100000000000D+01 0.226400000000D+04 0.000000000000D+00
    0.200000000000D+01 0.000000000000D+00-0.884756445885D-08 0.322000000000D+03
    0.237650000000D+06 0.400000000000D+01 0.000000000000D+00 0.000000000000D+00
12 23  5 30 20  0  0.0-0.382503494620D-03-0.466116034659D-11 0.000000000000D+00
    0.260000000000D+02 0.848125000000D+02 0.441089801732D-08 0.169932839409D+01
    0.433623790741D-05 0.878956390079D-02 0.647641718388D-05 0.515359833527D+04
    0.244800000000D+06-0.633299350738D-07 0.226635012829D+00-0.216066837311D-06
    0.965779535017D+00 0.254906250000D+03 0.137459501027D+01-0.811176645906D-08
    0.379301513716D-09 0.100000000000D+01 0.226400000000D+04 0.000000000000D+00
    0.200000000000D+01 0.000000000000D+00-0.125728547573D-07 0.260000000000D+02
    0.237651000000D+06 0.400000000000D+01 0.000000000000D+00 0.000000000000D+00
13 23  5 30 20  0  0.0 0.527278054506D-03 0.522959453519D-11 0.000000000000D+00
    0.630000000000D+02-0.452812500000D+02 0.449875881993D-08-0.138766582635D+01
   -0.238604843616D-05 0.698944402393D-02 0.632368028164D-05 0.515366389656D+04
    0.244800000000D+06 0.249594449997D-06-0.179947360252D+01 0.130385160446D-07
    0.969405158039D+00 0.263218750000D+03 0.907120822480D+00-0.804176354316D-08
   -0.441446959466D-09 0.100000000000D+01 0.226400000000D+04 0.000000000000D+00
    0.200000000000D+01 0.000000000000D+00-0.111758708954D-07 0.630000000000D+02
    0.244206000000D+06 0.400000000000D+01 0.000000000000D+00 0.000000000000D+00
14 23  5 30 20  0  0.0 0.744438730180D-04 0.126192389871D-10 0.000000000000D+00
    0.220000000000D+03 0.930625000000D+02 0.482448667352D-08 0.169738173435D+01
    0.473670661449D-05 0.318119826261D-02 0.636279582977D-05 0.515368125534D+04
    0.244800000000D+06-0.223517417908D-07 0.187939821682D+00 0.745058059692D-08
    0.949133660209D+00 0.248156250000D+03-0.301575907621D+01-0.833784730481D-08
    0.320727645308D-09 0.100000000000D+01 0.226400000000D+04 0.000000000000D+00
    0.200000000000D+01 0.000000000000D+00-0.791624188423D-08 0.476000000000D+03
    0.241686000000D+06 0.400000000000D+01 0.000000000000D+00 0.000000000000D+00
15 23  5 30 20  0  0.0 0.443388707936D-04 0.352429196937D-11 0.000000000000D+00
    0.180000000000D+02-0.285937500000D+02 0.535593738200D-08-0.196409793910D+01
   -0.138953328133D-05 0.149220175808D-01 0.434555113316D-05 0.515372261810D+04
    0.244800000000D+06 0.298023223877D-06-0.207834147046D+01-0.502914190292D-07
    0.932172890823D+00 0.278343750000D+03 0.119937203409D+01-0.833534720067D-08
   -0.140362989539D-09 0.100000000000D+01 0.226400000000D+04 0.000000000000D+00
    0.200000000000D+01 0.000000000000D+00-0.107102096081D-07 0.180000000000D+02
    0.244488000000D+06 0.400000000000D+01 0.000000000000D+00 0.000000000000D+00
16 23  5 30 20  0  0.0-0.496267806739D-03 0.352429196937D-11 0.000000000000D+00
    0.450000000000D+02 0.781562500000D+02 0.451411660250D-08-0.991771092275D-01
    0.430271029472D-05 0.133135087090D-01 0.602006912231D-05 0.515360579872D+04
    0.244800000000D+06 0.912696123123D-07 0.244885727788D+00 0.204890966415D-06
    0.965463257980D+00 0.268437500000D+03 0.788286158254D+00-0.838034907518D-08
    0.347157317639D-09 0.100000000000D+01 0.226400000000D+04 0.000000000000D+00
    0.200000000000D+01 0.000000000000D+00-0.102445483208D-07 0.450000000000D+02
    0.237618000000D+06 0.400000000000D+01 0.000000000000D+00 0.000000000000D+00
17 23  5 30 20  0  0.0 0.716701149941D-03 0.136424205266D-11 0.000000000000D+00
    0.490000000000D+02-0.383750000000D+02 0.466090843126D-08-0.106648004082D+01
   -0.183098018169D-05 0.134916779352D-01 0.452622771263D-05 0.515376801300D+04
    0.244800000000D+06-0.242143869400D-06 0.126591650266D+01 0.104308128357D-06
    0.974013273917D+00 0.306093750000D+03-0.140707389969D+01-0.846070956537D-08
   -0.115361948145D-09 0.100000000000D+01 0.226400000000D+04 0.000000000000D+00
    0.282842707634D+01 0.000000000000D+00-0.111758708954D-07 0.490000000000D+02
    0.237620000000D+06 0.400000000000D+01 0.000000000000D+00 0.000000000000D+00
18 23  5 30 20  0  0.0-0.287867151201D-03-0.154614099301D-10 0.000000000000D+00
    0.410000000000D+02-0.454375000000D+02 0.414231540121D-08-0.302628674380D+01
   -0.226497650147D-05 0.323694443796D-02 0.961311161518D-05 0.515367832184D+04
    0.244800000000D+06-0.558793544769D-07 0.227016702639D+01-0.167638063431D-07
    0.973871793646D+00 0.204562500000D+03 0.312374182290D+01-0.777496671572D-08
   -0.857178562071D-11 0.100000000000D+01 0.226400000000D+04 0.000000000000D+00
    0.200000000000D+01 0.000000000000D+00-0.838190317154D-08 0.809000000000D+03
    0.243223000000D+06 0.400000000000D+01 0.000000000000D+00 0.000000000000D+00
19 23  5 30 20  0  0.0 0.323962420225D-03 0.511590769747D-11 0.000000000000D+00
    0.100000000000D+03-0.469062500000D+02 0.458769109575D-08 0.111868694230D+01
   -0.253878533840D-05 0.944007316139D-02 0.396370887756D-05 0.515362216949D+04
    0.244800000000D+06 0.188127160072D-06 0.131047110350D+01-0.106170773506D-06
    0.973059764393D+00 0.309812500000D+03 0.230783862985D+01-0.827820196320D-08
   -0.188222125921D-09 0.100000000000D+01 0.226400000000D+04 0.000000000000D+00
    0.200000000000D+01 0.000000000000D+00-0.153668224812D-07 0.100000000000D+03
    0.237652000000D+06 0.400000000000D+01 0.000000000000D+00 0.000000000000D+00
